OBJECT_NAME,OBJECT_ID,EPOCH,MEAN_MOTION,ECCENTRICITY,INCLINATION,RA_OF_ASC_NODE,ARG_OF_PERICENTER,MEAN_ANOMALY,EPHEMERIS_TYPE,CLASSIFICATION_TYPE,NORAD_CAT_ID,ELEMENT_SET_NO,REV_AT_EPOCH,BSTAR,MEAN_MOTION_DOT,MEAN_MOTION_DDOT
PERSEUS-M1,2014-033AF,2026-05-17T09:26:51.823104,14.95520624,.00127604,97.9634,81.0260,45.6950,314.5314,0,U,40039,999,64603,.13739677E-3,.1464E-4,0
POLYITAN-1,2014-033AJ,2026-05-17T11:57:03.655872,15.32122709,.0005589,98.0957,160.8821,245.7989,114.2667,0,U,40042,999,64889,.3581046E-3,.11026E-3,0
TIGRISAT,2014-033AK,2026-05-17T09:24:04.847328,14.85019018,.0049653,97.7796,288.1192,174.1011,186.0799,0,U,40043,999,64105,.16206185E-3,.1358E-4,0
AEROCUBE 6A,2014-033AM,2026-05-17T10:17:33.737280,14.97745395,.00402184,97.7220,304.7184,117.3973,243.1350,0,U,40045,999,64201,.34936508E-3,.4106E-4,0
AEROCUBE 6B,2014-033AN,2026-05-17T11:03:40.378464,14.99164765,.00383877,97.7172,304.4769,110.6818,249.8527,0,U,40046,999,64215,.36244032E-3,.4418E-4,0
CANX-4,2014-034C,2026-05-17T14:50:29.643360,14.81202798,.00140552,98.3161,11.8044,107.5131,252.7617,0,U,40055,999,64000,.77986029E-4,.55E-5,0
CANX-5,2014-034D,2026-05-17T11:34:11.658432,14.81219706,.00140545,98.3163,11.7047,108.0971,252.1773,0,U,40056,999,63079,.78638443E-4,.556E-5,0
UKUBE-1,2014-037F,2026-05-17T11:41:51.817056,15.13016754,.0000334,98.4238,137.5486,127.1682,232.9577,0,U,40074,999,64391,.32720209E-3,.5702E-4,0
BRITE-PL2 (HEWELIUSZ),2014-049B,2026-05-17T07:22:44.737536,14.94465822,.00134979,97.9063,249.0782,206.9837,153.0682,0,U,40119,999,63683,.11306018E-3,.1162E-4,0
AEROCUBE 5C,2015-058B,2026-05-17T07:47:28.818240,14.91266268,.01298929,64.7684,358.5897,75.4018,286.1457,0,U,40965,999,36105,.19428657E-3,.2099E-4,0
AEROCUBE 7,2015-058C,2026-05-17T13:00:47.814912,14.95472274,.0119669,64.7627,340.7853,73.9902,287.4354,0,U,40966,999,36137,.25074875E-3,.303E-4,0
FOX-1A (AO-85),2015-058D,2026-05-16T23:01:53.010912,14.90773374,.01291278,64.7768,16.0156,68.8392,292.6463,0,U,40967,999,10891,.20908009E-3,.2238E-4,0
SINOD-D 1,2015-058E,2026-05-17T07:45:27.281088,14.95649294,.01176591,64.7761,355.5486,65.4694,295.8632,0,U,40968,999,11204,.25586287E-3,.3096E-4,0
SNAP-3 ALICE,2015-058G,2026-05-17T14:14:45.356064,15.53896552,.00331856,64.7522,209.1362,27.8161,332.4747,0,U,40970,999,11212,.64978145E-3,.43107E-3,0
LMRST-SAT,2015-058H,2026-05-17T09:02:32.396640,14.90400825,.0130925,64.7772,10.9998,70.7027,290.8191,0,U,40971,999,10896,.20815178E-3,.2214E-4,0
SNAP-3 EDDIE,2015-058J,2026-05-17T14:34:04.622880,15.55063424,.00335487,64.7439,200.0346,31.5257,328.7887,0,U,40972,999,11426,.65234084E-3,.45225E-3,0
PROPCUBE 3,2015-058K,2026-05-16T14:49:07.158144,14.94030179,.0123036,64.7692,351.1555,72.4933,288.9582,0,U,40973,999,11008,.23953E-3,.2794E-4,0
BISONSAT,2015-058L,2026-05-17T11:41:51.784224,15.15533064,.00786742,64.7601,272.8422,60.3211,300.5715,0,U,40974,999,11096,.37985126E-3,.7618E-4,0
SNAP-3 JIMI,2015-058M,2026-05-17T11:56:39.885504,15.01965850,.01050745,64.7650,316.8475,68.1036,293.1214,0,U,40975,999,10961,.2936832E-3,.4157E-4,0
PROPCUBE 1 (FLORA),2015-058N,2026-05-17T10:30:15.284160,14.89032984,.01297235,64.7762,30.5237,72.9616,288.5661,0,U,40976,999,11168,.19852651E-3,.2018E-4,0
SINOD-D 3,2015-058P,2026-05-17T09:07:25.584672,14.93763754,.01181925,64.7737,12.0026,70.4401,290.9429,0,U,40977,999,11015,.25459848E-3,.2925E-4,0
HORYU-4,2016-012D,2026-05-17T13:06:00.420480,15.79274004,.00047408,30.9887,300.9018,65.0940,295.0210,0,U,41340,999,56594,.65633239E-3,.125194E-2,0
RAVAN,2016-067B,2026-05-17T15:12:29.852640,15.51703672,.00071852,97.9936,23.7484,107.9774,252.2261,0,U,41849,999,52295,.44664215E-3,.26557E-3,0
CELTEE 1,2016-067C,2026-05-17T03:00:01.529280,15.19352679,.00015771,98.0712,1.5757,56.1369,304.0014,0,U,41850,999,52116,.18092527E-3,.3747E-4,0
OPTICUBE 04,2016-067D,2026-05-17T12:31:37.991136,15.09518363,.00147488,98.0728,348.2039,217.3624,142.6579,0,U,41851,999,52054,.98642086E-4,.1513E-4,0
AEROCUBE 8D,2016-067E,2026-05-17T08:45:45.719136,15.23932248,.00022116,98.0719,5.1972,221.4466,138.6602,0,U,41852,999,52137,.22399273E-3,.5333E-4,0
AEROCUBE 8C,2016-067F,2026-05-17T03:10:40.870272,15.24169649,.00058771,98.0591,2.2151,153.6949,206.4586,0,U,41853,999,52133,.2382798E-3,.5721E-4,0
CORVUS BC2,2017-042X,2026-05-17T10:27:08.108064,15.06082946,.00122184,97.4038,299.9917,210.3708,149.6813,0,U,42846,999,48243,.12768694E-3,.1808E-4,0
CORVUS BC1,2017-042Y,2026-05-17T10:24:24.259968,15.06253793,.0011756,97.4069,300.7838,185.4973,174.6128,0,U,42847,999,48246,.11974208E-3,.17E-4,0
MAKERSAT 0,2017-073D,2026-05-17T09:43:14.262816,15.30727134,.01109012,97.4671,19.7092,23.6146,337.0130,0,U,43016,999,46175,.49983194E-3,.17905E-3,0
